#dP2024  4 27  0  0  0.00000000      96 __u+U IGS20 FIT  IAC
## 2311 518400.00000000   900.00000000 60427 0.0000000000000
+  131   C01C02C03C04C05C06C07C08C09C10C11C12C13C14C16C19C20
+        C21C22C23C24C25C26C27C28C29C30C32C33C34C35C36C37C38
+        C39C40C41C42C43C44C45C46C59C60C62E02E03E04E05E07E08
+        E09E10E11E12E13E14E15E18E19E21E24E25E26E27E30E31E33
+        E34E36G02G03G04G05G06G07G08G09G10G11G12G13G14G15G16
+        G17G18G19G20G21G22G23G24G25G26G27G28G29G30G31G32J02
+        J03J04J07R01R02R03R04R05R06R07R08R09R10R11R12R13R14
+        R15R16R17R18R19R20R21R22R23R24R25R26  0  0  0  0  0
++        17 16  0 17 16  9  9  9  9  9  9  9  9  9  9  7  7
++         7  7  7  7  7  7  7  7  7  7  8  7  7  8  7  8  8
++         8  8  8  7  7  7  7  7  0 17  0  4  5  4  5  4  4
++         4  4  4  4  4  4  4  4  4  4  5  4  4  4  4  5  4
++         5  4  4  4  4  4  4  4  4  4  4  4  4  4  4  4  4
++         4  4  4  4  4  4  4  4  4  4  4  4  4  4  4  4 10
++        11 11  0  7  6  6  6  6 15  6  6  6 15  6  6  8  6
++         6  6  6  6  8  7  6  6 15  6  8  8  0  0  0  0  0
%c M  cc GPS ccc cccc cccc cccc cccc ccccc ccccc ccccc ccccc
%c cc cc ccc ccc cccc cccc cccc cccc ccccc ccccc ccccc ccccc
%f  0.0000000  0.000000000  0.00000000000  0.000000000000000
%f  0.0000000  0.000000000  0.00000000000  0.000000000000000
%i    0    0    0    0      0      0      0      0         0
%i    0    0    0    0      0      0      0      0         0
/* INFORMATION & ANALYSIS CENTER (IAC)            RAPID DATA
/* S/V CLOCKS ARE ALIGNED TO GNSS TIME                      
/* G:C1WC2W R:C1PC2P E:C1XC5X C:C2IC6I J:C1CC2S             
/* PCV:IGS20_2290 OL/AL:FES2004  NONE     YN ORB:CoN CLK:CoN
*  2024 04 27  6 30  0.00000000
PC01 -34339.423366  24474.069294    545.610191    893.821778
PC02   4316.996674  41878.296714  -1217.162652    638.327698
PC03      0.000000      0.000000      0.000000 999999.999999
PC04 -39630.117549  14405.198324    892.548481   -161.362409
PC05  21805.111214  36035.347653  -1206.844518   -829.964879
PC06  -1022.018792  27690.190845 -31606.469023    377.782831
PC07 -17712.521712  32131.122075  20673.475568   -782.747025
PC08  -8158.357627  40451.225078   9155.250040    -61.520532
PC09   4768.951971  30109.612259 -28382.561725   -819.755587
PC10  -8716.474419  32053.243910  26004.780348     71.333233
PC11 -12016.520055 -16894.934998 -18614.312100    533.046292
PC12   9237.778131 -13094.782415 -22813.795682   -237.823250
PC13  -3347.368693  42122.515294   2283.938881    433.117264
PC14  -1383.432426 -18467.478657  20912.540541    742.392418
PC16  -6098.619051  24497.087800 -33421.034513   -484.274639
PC19  10224.903633  11786.727526 -23107.161820   -913.483060
PC20  -6103.228858  21550.047887 -16606.189903   -403.022433
PC21  20340.699975 -19121.606301   -654.635829   -964.342217
PC22  21706.471240  -5322.822430 -16731.864239    -24.602584
PC23 -17250.164862  -5991.386773 -21097.234181   -776.644110
PC24   -776.824506 -26681.870259   8088.346600    933.491869
PC25 -13374.086728 -22606.234419  -9408.311131    385.195928
PC26  11124.694036 -15191.012394  20569.211756   -283.073977
PC27 -18045.704059   8870.996656  19330.419804    304.768710
PC28 -26885.591863  -2722.671008   6969.660499    233.277589
PC29  20576.781759  14142.249423  12451.127085    273.681015
PC30    757.834039  16503.992176  22474.114239    -64.337413
PC32 -20223.483866  19195.227918    794.471596   -610.465332
PC33 -10204.294621 -11873.459771  23108.361663   -969.054777
PC34  -2635.795793 -16803.246103 -22143.988893    421.155872
PC35  27004.242401   1848.386728  -6726.109366    377.147605
PC36  12791.347850  23013.609417   9281.564160     64.092619
PC37 -11581.530431  14745.098267 -20665.965984   -965.279720
PC38 -11723.757578  37382.661353  15801.518146    151.553046
PC39 -10321.930108  21873.824219 -34458.435509     -8.135972
PC40 -24924.087635  26519.501993  21040.773209    -67.407327
PC41 -21410.358532   4514.736328  17363.361604   -934.151740
PC42   7567.888814 -22041.542785  15425.958499   -442.694507
PC43 -19823.114662 -14593.970266 -13182.520596     69.523888
PC44  17820.808195  -9634.107486 -19197.908591    456.038365
PC45  17126.562757   6161.156940  21156.964635    -82.331755
PC46   1278.999395  26889.926557  -7429.288694   -143.393621
PC59      0.000000      0.000000      0.000000 999999.999999
PC60   7326.109623  41518.015356    174.702748     -0.670488
PC62      0.000000      0.000000      0.000000 999999.999999
PE02   4217.719013  23552.152103  17427.691812    122.769977
PE03  11198.580996  14477.568050 -23262.005901   -109.965966
PE04 -27198.750854  -3013.168408  11290.583182   -383.298311
PE05 -11063.606882  17232.752928 -21360.306482   4742.366785
PE07  27168.274135  -9728.944953   6633.231804   -116.861592
PE08  26838.215566   3472.635880 -12003.920795   -261.521179
PE09 -27208.060877   9617.617054  -6537.637771   -421.997704
PE10 -21231.993652  -5177.027518  19955.901117   -620.319058
PE11 -16090.805176   5260.287928  24269.816731   2971.807173
PE12 -22717.934994 -13750.862143  13094.997863  -1012.597145
PE13  16403.430441  -4662.134669 -24192.751252    -21.242750
PE14   7029.283501  15537.797530  19398.451595     18.654745
PE15  22681.830144  14181.597793 -12656.934963    -99.489274
PE18   4473.142961 -20139.730465 -22767.540872     45.367556
PE19  -8822.843051 -15165.779494  23853.429178   -168.383009
PE21   9419.089381 -28046.590397   -935.983950   -591.423614
PE24 -18313.328758  15940.705091 -16963.386564   -730.315005
PE25  -9686.041925  27967.241920    532.993610      3.817239
PE26    228.484144 -20869.142143 -20992.641679    437.684825
PE27  18161.049992 -16287.796025  16758.245287   -334.760477
PE30  16059.259738   5156.993984  24311.096132   -240.856133
PE31 -16089.659525  -4919.289477 -24350.981441    -21.926643
PE33 -15217.996505 -24511.736664  -6623.051229     10.954160
PE34  15615.017039  24391.764097   6108.487925   -107.983951
PE36   -675.263629  20432.844400  21397.581842   -219.072003
PG02 -22071.520316 -12871.945842   8246.322720   -446.328726
PG03 -14211.791825  -3578.574564  21998.204163    332.994322
PG04 -24653.374897  -2476.493660   9768.458656    348.137719
PG05   7856.066467  18032.228839 -17980.098314   -170.625982
PG06   -809.757633  18261.653365  19287.270651    302.103984
PG07 -16612.258769   3032.535317 -20099.940581   -116.346221
PG08 -18629.009871  -8101.475833 -17436.004660    146.117540
PG09 -25271.027594   7903.092468  -2514.932264    175.195083
PG10  10551.055150 -23799.702286  -4095.967356    -14.181870
PG11  10009.020540  22678.563302   9628.518185   -647.455095
PG12  13750.974638   6093.680459  21608.019977   -500.252428
PG13   9973.753274  13560.420601 -20803.853213    646.018712
PG14 -13376.949464  21486.932547  -7668.379839    386.508786
PG15  19286.244496   6590.702382 -17625.861187    152.811244
PG16  -3145.930729 -21069.604348 -15907.033303   -306.481439
PG17 -18161.982933  13071.845172  14848.942978    710.008628
PG18  15603.599653  -3936.175294 -21153.292095   -601.417144
PG19  -9042.096965  14718.354909  19880.936009    473.953915
PG20   2507.970054  25165.052317  -8305.510577    378.680180
PG21 -21265.715772 -16596.641474   3187.412833    124.977814
PG22  -9812.705607  24846.796928    987.181105     -5.439493
PG23  15108.028152 -15678.209515 -15051.952728    211.038389
PG24  21675.644537  14753.612244   5026.556628   -463.882111
PG25  16369.796726  -5111.648868  19872.145996    494.617639
PG26   3310.985909 -25910.016532  -3702.565315    161.095141
PG27  -6936.899646 -14011.972673 -21798.084360    -21.000019
PG28   2855.444557 -17179.906216  20040.426867   -219.886807
PG29  26343.021219  -3825.785470   -326.605418   -600.522910
PG30  -8442.593500  13704.849162 -20950.800291   -399.167286
PG31  -6141.892195 -21707.052139  13484.034917   -227.954033
PG32  14834.531539 -14974.029643  16249.002392   -618.406647
PJ02 -25298.728213  32699.027203  -3997.867180     -4.569777
PJ03 -26704.358208  22068.045276  29159.952367      0.043368
PJ04 -33524.682543  25510.277983   2466.595752     50.395068
PJ07      0.000000      0.000000      0.000000 999999.999999
PR01  21655.863558 -10456.740279  -8526.224643     83.655255
PR02  17371.088591 -16385.834974   8931.904316    -22.811466
PR03   2695.514314 -13846.988067  21291.152229     99.051248
PR04 -12764.314608  -3697.134572  21810.042132    233.832011
PR05 -21675.711081   8274.288961  10639.454174    130.608562
PR06 -15948.715227  17251.219713  -9956.141623   -160.810060
PR07  -2012.079373  13496.865953 -21514.465888     81.115127
PR08  13023.561210   3473.576966 -21583.606151    -75.222125
PR09  -5263.109970  20163.065599 -14633.260428    183.319302
PR10   1861.225147  25475.280264   -585.147602   -155.221218
PR11   9132.239335  17406.125958  16256.277696     26.650101
PR12  10818.535795  -2822.424341  22950.417447     39.467781
PR13   6431.449675 -18277.172142  16575.929105    -46.789943
PR14  -2877.220052 -25301.615878  -1668.854337     26.439886
PR15  -9502.145168 -16175.290541 -17269.826983     80.245686
PR16 -10678.020416   2552.291159 -23014.066205     25.124057
PR17  -9726.105700 -14396.131157 -18658.841412     81.636110
PR18 -21264.664466 -13324.408421  -4723.498999    139.204793
PR19 -22280.488193  -7130.330169  10165.251257   -274.531892
PR20  -9068.095851   6651.792582  22902.384776   -111.916006
PR21   9625.811932  14423.114629  18711.087352    -96.108548
PR22  21272.789651  13597.294722   3606.631347    114.802521
PR23  21382.765224   4505.029564 -13163.851014   -119.136094
PR24   8422.961238  -7793.511314 -22770.682744    -53.490302
PR25   9281.454811  15054.440985  18390.707393    -31.907551
PR26  12144.933400   4231.699397 -22007.508189    -22.773489
EOF
